start=new Date('2021-09-16T00:00:00.000Z').valueOf();
sats=[{"TLE_LINE2":"2 44940  53.0536 110.1261 0001955  84.0901 276.0311 15.06393602 93567","CENTER_NAME":"EARTH","SITE":"AFETR","REV_AT_EPOCH":"9356","SEMIMAJOR_AXIS":"6925.368","LAUNCH_DATE":"2020-01-07","RA_OF_ASC_NODE":"110.1261","ECCENTRICITY":"0.00019550","OBJECT_NAME":"STARLINK-1091","CLASSIFICATION_TYPE":"U","OBJECT_TYPE":"PAYLOAD","MEAN_MOTION_DDOT":"0.0000000000000","OBJECT_ID":"2020-001AC","DECAY_DATE":null,"REF_FRAME":"TEME","GP_ID":"184785568","MEAN_ANOMALY":"276.0311","PERIAPSIS":"545.879","EPHEMERIS_TYPE":"0","MEAN_ELEMENT_THEORY":"SGP4","MEAN_MOTION_DOT":"0.00001394","FILE":"3116597","INCLINATION":"53.0536","NORAD_CAT_ID":"44940","MEAN_MOTION":"15.06393602","TIME_SYSTEM":"UTC","EPOCH":"2021-09-15T20:45:20.684736","APOAPSIS":"548.587","RCS_SIZE":"LARGE","BSTAR":"0.00011248000000","ELEMENT_SET_NO":"999","ARG_OF_PERICENTER":"84.0901","TLE_LINE1":"1 44940U 20001AC  21258.86482274  .00001394  00000-0  11248-3 0  9999","COUNTRY_CODE":"US","PERIOD":"95.593"},{"FILE":"3116597","NORAD_CAT_ID":"44941","TIME_SYSTEM":"UTC","MEAN_MOTION":"15.06390676","INCLINATION":"53.0539","EPOCH":"2021-09-15T21:17:11.727456","GP_ID":"184786320","REF_FRAME":"TEME","MEAN_ANOMALY":"281.2984","EPHEMERIS_TYPE":"0","PERIAPSIS":"545.704","MEAN_MOTION_DOT":"0.00001201","MEAN_ELEMENT_THEORY":"SGP4","ELEMENT_SET_NO":"999","BSTAR":"0.00009956900000","ARG_OF_PERICENTER":"78.8254","TLE_LINE1":"1 44941U 20001AD  21258.88694129  .00001201  00000-0  99569-4 0  9996","COUNTRY_CODE":"US","PERIOD":"95.593","APOAPSIS":"548.780","RCS_SIZE":"LARGE","LAUNCH_DATE":"2020-01-07","RA_OF_ASC_NODE":"110.0275","ECCENTRICITY":"0.00022210","CLASSIFICATION_TYPE":"U","OBJECT_NAME":"STARLINK-1094","TLE_LINE2":"2 44941  53.0539 110.0275 0002221  78.8254 281.2984 15.06390676 93577","SITE":"AFETR","CENTER_NAME":"EARTH","REV_AT_EPOCH":"9357","SEMIMAJOR_AXIS":"6925.377","MEAN_MOTION_DDOT":"0.0000000000000","DECAY_DATE":null,"OBJECT_ID":"2020-001AD","OBJECT_TYPE":"PAYLOAD"},{"ARG_OF_PERICENTER":"91.7038","BSTAR":"-0.00046602000000","ELEMENT_SET_NO":"999","TLE_LINE1":"1 44942U 20001AE  21258.87218527 -.00007223  00000-0 -46602-3 0  9991","COUNTRY_CODE":"US","PERIOD":"95.590","APOAPSIS":"548.208","RCS_SIZE":"LARGE","INCLINATION":"53.0557","NORAD_CAT_ID":"44942","MEAN_MOTION":"15.06436624","TIME_SYSTEM":"UTC","FILE":"3116597","EPOCH":"2021-09-15T20:55:56.807328","PERIAPSIS":"545.995","EPHEMERIS_TYPE":"0","GP_ID":"184786568","REF_FRAME":"TEME","MEAN_ANOMALY":"268.4134","MEAN_ELEMENT_THEORY":"SGP4","MEAN_MOTION_DOT":"-0.00007223","DECAY_DATE":null,"OBJECT_ID":"2020-001AE","MEAN_MOTION_DDOT":"0.0000000000000","OBJECT_TYPE":"PAYLOAD","ECCENTRICITY":"0.00015980","LAUNCH_DATE":"2020-01-07","RA_OF_ASC_NODE":"110.0997","CLASSIFICATION_TYPE":"U","OBJECT_NAME":"STARLINK-1096","CENTER_NAME":"EARTH","SITE":"AFETR","TLE_LINE2":"2 44942  53.0557 110.0997 0001598  91.7038 268.4134 15.06436624 93577","SEMIMAJOR_AXIS":"6925.236","REV_AT_EPOCH":"9357"},{"OBJECT_TYPE":"PAYLOAD","MEAN_MOTION_DDOT":"0.0000000000000","OBJECT_ID":"2020-001AF","DECAY_DATE":null,"SEMIMAJOR_AXIS":"6925.348","REV_AT_EPOCH":"9356","TLE_LINE2":"2 44943  53.0535 110.2006 0002106  89.8504 270.2726 15.06400028 93565","CENTER_NAME":"EARTH","SITE":"AFETR","CLASSIFICATION_TYPE":"U","OBJECT_NAME":"STARLINK-1100","LAUNCH_DATE":"2020-01-07","RA_OF_ASC_NODE":"110.2006","ECCENTRICITY":"0.00021060","RCS_SIZE":"LARGE","APOAPSIS":"548.672","PERIOD":"95.592","TLE_LINE1":"1 44943U 20001AF  21258.85007180  .00000984  00000-0  84976-4 0  9993","COUNTRY_CODE":"US","BSTAR":"0.00008497600000","ELEMENT_SET_NO":"999","ARG_OF_PERICENTER":"89.8504","MEAN_ELEMENT_THEORY":"SGP4","MEAN_MOTION_DOT":"0.00000984","GP_ID":"184785319","MEAN_ANOMALY":"270.2726","REF_FRAME":"TEME","PERIAPSIS":"545.755","EPHEMERIS_TYPE":"0","EPOCH":"2021-09-15T20:24:06.203520","FILE":"3116597","INCLINATION":"53.0535","TIME_SYSTEM":"UTC","NORAD_CAT_ID":"44943","MEAN_MOTION":"15.06400028"},{"DECAY_DATE":null,"OBJECT_ID":"2020-001AG","MEAN_MOTION_DDOT":"0.0000000000000","OBJECT_TYPE":"PAYLOAD","CLASSIFICATION_TYPE":"U","OBJECT_NAME":"STARLINK-1108","ECCENTRICITY":"0.00020890","LAUNCH_DATE":"2020-01-07","RA_OF_ASC_NODE":"109.9788","SEMIMAJOR_AXIS":"6925.386","REV_AT_EPOCH":"9357","CENTER_NAME":"EARTH","SITE":"AFETR","TLE_LINE2":"2 44944  53.0537 109.9788 0002089  83.4818 276.6409 15.06387921 93573","COUNTRY_CODE":"US","TLE_LINE1":"1 44944U 20001AG  21258.89799915 -.00000951  00000-0 -44983-4 0  9992","PERIOD":"95.593","ARG_OF_PERICENTER":"83.4818","BSTAR":"-0.00004498300000","ELEMENT_SET_NO":"999","RCS_SIZE":"LARGE","APOAPSIS":"548.697","EPOCH":"2021-09-15T21:33:07.126560","INCLINATION":"53.0537","NORAD_CAT_ID":"44944","TIME_SYSTEM":"UTC","MEAN_MOTION":"15.06387921","FILE":"3116597","MEAN_ELEMENT_THEORY":"SGP4","MEAN_MOTION_DOT":"-0.00000951","PERIAPSIS":"545.804","EPHEMERIS_TYPE":"0","GP_ID":"184786069","MEAN_ANOMALY":"276.6409","REF_FRAME":"TEME"},{"TLE_LINE1":"1 44945U 20001AH  21258.86113699 -.00000900  00000-0 -41527-4 0  9994","COUNTRY_CODE":"US","PERIOD":"95.593","ARG_OF_PERICENTER":"77.9851","BSTAR":"-0.00004152700000","ELEMENT_SET_NO":"999","RCS_SIZE":"LARGE","APOAPSIS":"548.628","EPOCH":"2021-09-15T20:40:02.235936","INCLINATION":"53.0524","NORAD_CAT_ID":"44945","MEAN_MOTION":"15.06393615","TIME_SYSTEM":"UTC","FILE":"3116597","MEAN_ELEMENT_THEORY":"SGP4","MEAN_MOTION_DOT":"-0.00000900","PERIAPSIS":"545.838","EPHEMERIS_TYPE":"0","GP_ID":"184786821","MEAN_ANOMALY":"282.1364","REF_FRAME":"TEME","OBJECT_ID":"2020-001AH","DECAY_DATE":null,"MEAN_MOTION_DDOT":"0.0000000000000","OBJECT_TYPE":"PAYLOAD","OBJECT_NAME":"STARLINK-1109","CLASSIFICATION_TYPE":"U","ECCENTRICITY":"0.00020140","LAUNCH_DATE":"2020-01-07","RA_OF_ASC_NODE":"110.1439","REV_AT_EPOCH":"9356","SEMIMAJOR_AXIS":"6925.368","CENTER_NAME":"EARTH","SITE":"AFETR","TLE_LINE2":"2 44945  53.0524 110.1439 0002014  77.9851 282.1364 15.06393615 93568"},{"RCS_SIZE":"LARGE","APOAPSIS":"544.907","TLE_LINE1":"1 44946U 20001AJ  21258.84673985  .00003055  00000-0  21543-3 0  9999","COUNTRY_CODE":"US","PERIOD":"95.499","ARG_OF_PERICENTER":"81.9782","ELEMENT_SET_NO":"999","BSTAR":"0.00021543000000","MEAN_MOTION_DOT":"0.00003055","MEAN_ELEMENT_THEORY":"SGP4","EPHEMERIS_TYPE":"0","PERIAPSIS":"540.499","REF_FRAME":"TEME","GP_ID":"184787069","MEAN_ANOMALY":"278.1568","EPOCH":"2021-09-15T20:19:18.323040","NORAD_CAT_ID":"44946","MEAN_MOTION":"15.07872881","TIME_SYSTEM":"UTC","INCLINATION":"53.0034","FILE":"3116597","OBJECT_TYPE":"PAYLOAD","DECAY_DATE":null,"OBJECT_ID":"2020-001AJ","MEAN_MOTION_DDOT":"0.0000000000000","REV_AT_EPOCH":"9359","SEMIMAJOR_AXIS":"6920.838","SITE":"AFETR","CENTER_NAME":"EARTH","TLE_LINE2":"2 44946  53.0034 107.0521 0003184  81.9782 278.1568 15.07872881 93591","OBJECT_NAME":"STARLINK-1110","CLASSIFICATION_TYPE":"U","ECCENTRICITY":"0.00031840","RA_OF_ASC_NODE":"107.0521","LAUNCH_DATE":"2020-01-07"},{"APOAPSIS":"548.666","RCS_SIZE":"LARGE","ELEMENT_SET_NO":"999","BSTAR":"0.00013476000000","ARG_OF_PERICENTER":"84.9220","COUNTRY_CODE":"US","TLE_LINE1":"1 44947U 20001AK  21258.88325320  .00001726  00000-0  13476-3 0  9990","PERIOD":"95.592","GP_ID":"184785820","MEAN_ANOMALY":"275.2006","REF_FRAME":"TEME","EPHEMERIS_TYPE":"0","PERIAPSIS":"545.794","MEAN_MOTION_DOT":"0.00001726","MEAN_ELEMENT_THEORY":"SGP4","FILE":"3116597","NORAD_CAT_ID":"44947","TIME_SYSTEM":"UTC","MEAN_MOTION":"15.06394649","INCLINATION":"53.0534","EPOCH":"2021-09-15T21:11:53.076480","OBJECT_TYPE":"PAYLOAD","MEAN_MOTION_DDOT":"0.0000000000000","DECAY_DATE":null,"OBJECT_ID":"2020-001AK","TLE_LINE2":"2 44947  53.0534 110.0425 0002073  84.9220 275.2006 15.06394649 93573","SITE":"AFETR","CENTER_NAME":"EARTH","SEMIMAJOR_AXIS":"6925.365","REV_AT_EPOCH":"9357","LAUNCH_DATE":"2020-01-07","RA_OF_ASC_NODE":"110.0425","ECCENTRICITY":"0.00020730","OBJECT_NAME":"STARLINK-1116","CLASSIFICATION_TYPE":"U"},{"APOAPSIS":"548.619","RCS_SIZE":"LARGE","BSTAR":"-0.00002913900000","ELEMENT_SET_NO":"999","ARG_OF_PERICENTER":"80.2308","TLE_LINE1":"1 44949U 20001AM  21258.90905866 -.00000716  00000-0 -29139-4 0  9998","COUNTRY_CODE":"US","PERIOD":"95.593","GP_ID":"184785569","MEAN_ANOMALY":"279.8904","REF_FRAME":"TEME","PERIAPSIS":"545.885","EPHEMERIS_TYPE":"0","MEAN_ELEMENT_THEORY":"SGP4","MEAN_MOTION_DOT":"-0.00000716","FILE":"3116597","INCLINATION":"53.0547","NORAD_CAT_ID":"44949","TIME_SYSTEM":"UTC","MEAN_MOTION":"15.06387400","EPOCH":"2021-09-15T21:49:02.668224","OBJECT_TYPE":"PAYLOAD","MEAN_MOTION_DDOT":"0.0000000000000","DECAY_DATE":null,"OBJECT_ID":"2020-001AM","TLE_LINE2":"2 44949  53.0547 109.9304 0001974  80.2308 279.8904 15.06387400 93571","CENTER_NAME":"EARTH","SITE":"AFETR","SEMIMAJOR_AXIS":"6925.387","REV_AT_EPOCH":"9357","LAUNCH_DATE":"2020-01-07","RA_OF_ASC_NODE":"109.9304","ECCENTRICITY":"0.00019740","OBJECT_NAME":"STARLINK-1122","CLASSIFICATION_TYPE":"U"},{"OBJECT_NAME":"STARLINK-1125","CLASSIFICATION_TYPE":"U","ECCENTRICITY":"0.00019940","RA_OF_ASC_NODE":"110.1661","LAUNCH_DATE":"2020-01-07","SEMIMAJOR_AXIS":"6925.370","REV_AT_EPOCH":"9356","SITE":"AFETR","CENTER_NAME":"EARTH","TLE_LINE2":"2 44950  53.0552 110.1661 0001994  85.0918 275.0298 15.06392846 93564","DECAY_DATE":null,"OBJECT_ID":"2020-001AN","MEAN_MOTION_DDOT":"0.0000000000000","OBJECT_TYPE":"PAYLOAD","EPOCH":"2021-09-15T20:34:43.798368","NORAD_CAT_ID":"44950","TIME_SYSTEM":"UTC","MEAN_MOTION":"15.06392846","INCLINATION":"53.0552","FILE":"3116597","MEAN_MOTION_DOT":"-0.00000826","MEAN_ELEMENT_THEORY":"SGP4","EPHEMERIS_TYPE":"0","PERIAPSIS":"545.855","GP_ID":"184786321","REF_FRAME":"TEME","MEAN_ANOMALY":"275.0298","TLE_LINE1":"1 44950U 20001AN  21258.85745137 -.00000826  00000-0 -36577-4 0  9993","PERIOD":"95.593","COUNTRY_CODE":"US","ARG_OF_PERICENTER":"85.0918","ELEMENT_SET_NO":"999","BSTAR":"-0.00003657700000","RCS_SIZE":"LARGE","APOAPSIS":"548.616"}];
